CCSDS_OMM_VERS = 2.0
CREATION_DATE  = 
ORIGINATOR     = 

OBJECT_NAME    = UNKNOWN
OBJECT_ID      = 
CENTER_NAME    = EARTH
REF_FRAME      = TEME
TIME_SYSTEM    = UTC
MEAN_ELEMENT_THEORY = SGP/SGP4

EPOCH          = 2026-01-14T10:10:30.922464
MEAN_MOTION    = 13.76776292
ECCENTRICITY   = .0020487
INCLINATION    = 100.0500
RA_OF_ASC_NODE = 4.5334
ARG_OF_PERICENTER = 183.7705
MEAN_ANOMALY   = 176.3291

EPHEMERIS_TYPE = 0
CLASSIFICATION_TYPE = U
NORAD_CAT_ID   = 81893
ELEMENT_SET_NO = 999
REV_AT_EPOCH   = 60857
BSTAR          = .88982E-3
MEAN_MOTION_DOT = .827E-5
MEAN_MOTION_DDOT = 0

CCSDS_OMM_VERS = 2.0
CREATION_DATE  = 
ORIGINATOR     = 

OBJECT_NAME    = UNKNOWN
OBJECT_ID      = 
CENTER_NAME    = EARTH
REF_FRAME      = TEME
TIME_SYSTEM    = UTC
MEAN_ELEMENT_THEORY = SGP/SGP4

EPOCH          = 2026-01-16T03:02:28.811040
MEAN_MOTION    = 13.20300650
ECCENTRICITY   = .018049
INCLINATION    = 102.4126
RA_OF_ASC_NODE = 129.1309
ARG_OF_PERICENTER = 143.1942
MEAN_ANOMALY   = 218.1714

EPHEMERIS_TYPE = 0
CLASSIFICATION_TYPE = U
NORAD_CAT_ID   = 81899
ELEMENT_SET_NO = 999
REV_AT_EPOCH   = 58352
BSTAR          = .19084E-2
MEAN_MOTION_DOT = .782E-5
MEAN_MOTION_DDOT = 0

CCSDS_OMM_VERS = 2.0
CREATION_DATE  = 
ORIGINATOR     = 

OBJECT_NAME    = UNKNOWN
OBJECT_ID      = 
CENTER_NAME    = EARTH
REF_FRAME      = TEME
TIME_SYSTEM    = UTC
MEAN_ELEMENT_THEORY = SGP/SGP4

EPOCH          = 2026-01-11T05:17:07.119456
MEAN_MOTION    = 13.15244741
ECCENTRICITY   = .0844073
INCLINATION    = 65.7098
RA_OF_ASC_NODE = 346.2113
ARG_OF_PERICENTER = 101.7865
MEAN_ANOMALY   = 267.9012

EPHEMERIS_TYPE = 0
CLASSIFICATION_TYPE = U
NORAD_CAT_ID   = 81921
ELEMENT_SET_NO = 999
REV_AT_EPOCH   = 2966
BSTAR          = .63836E-3
MEAN_MOTION_DOT = .1504E-4
MEAN_MOTION_DDOT = 0

CCSDS_OMM_VERS = 2.0
CREATION_DATE  = 
ORIGINATOR     = 

OBJECT_NAME    = UNKNOWN
OBJECT_ID      = 
CENTER_NAME    = EARTH
REF_FRAME      = TEME
TIME_SYSTEM    = UTC
MEAN_ELEMENT_THEORY = SGP/SGP4

EPOCH          = 2026-01-16T04:35:32.761824
MEAN_MOTION    = 12.42601212
ECCENTRICITY   = .0674966
INCLINATION    = 66.4180
RA_OF_ASC_NODE = 86.3844
ARG_OF_PERICENTER = 334.6287
MEAN_ANOMALY   = 50.1261

EPHEMERIS_TYPE = 0
CLASSIFICATION_TYPE = U
NORAD_CAT_ID   = 81946
ELEMENT_SET_NO = 999
REV_AT_EPOCH   = 55216
BSTAR          = .17863E-2
MEAN_MOTION_DOT = .497E-5
MEAN_MOTION_DDOT = 0

CCSDS_OMM_VERS = 2.0
CREATION_DATE  = 
ORIGINATOR     = 

OBJECT_NAME    = UNKNOWN
OBJECT_ID      = 
CENTER_NAME    = EARTH
REF_FRAME      = TEME
TIME_SYSTEM    = UTC
MEAN_ELEMENT_THEORY = SGP/SGP4

EPOCH          = 2026-01-13T13:57:03.703968
MEAN_MOTION    = 14.53154030
ECCENTRICITY   = .0371884
INCLINATION    = 66.0752
RA_OF_ASC_NODE = 79.3228
ARG_OF_PERICENTER = 122.7684
MEAN_ANOMALY   = 240.9834

EPHEMERIS_TYPE = 0
CLASSIFICATION_TYPE = U
NORAD_CAT_ID   = 81947
ELEMENT_SET_NO = 999
REV_AT_EPOCH   = 63564
BSTAR          = .24239E-3
MEAN_MOTION_DOT = .239E-4
MEAN_MOTION_DDOT = 0

CCSDS_OMM_VERS = 2.0
CREATION_DATE  = 
ORIGINATOR     = 

OBJECT_NAME    = UNKNOWN
OBJECT_ID      = 
CENTER_NAME    = EARTH
REF_FRAME      = TEME
TIME_SYSTEM    = UTC
MEAN_ELEMENT_THEORY = SGP/SGP4

EPOCH          = 2026-01-15T20:26:51.641376
MEAN_MOTION    = 13.95819243
ECCENTRICITY   = .0030165
INCLINATION    = 66.5834
RA_OF_ASC_NODE = 174.0648
ARG_OF_PERICENTER = 58.2242
MEAN_ANOMALY   = 302.1769

EPHEMERIS_TYPE = 0
CLASSIFICATION_TYPE = U
NORAD_CAT_ID   = 81964
ELEMENT_SET_NO = 999
REV_AT_EPOCH   = 61880
BSTAR          = .16612E-3
MEAN_MOTION_DOT = .149E-5
MEAN_MOTION_DDOT = 0

CCSDS_OMM_VERS = 2.0
CREATION_DATE  = 
ORIGINATOR     = 

OBJECT_NAME    = UNKNOWN
OBJECT_ID      = 
CENTER_NAME    = EARTH
REF_FRAME      = TEME
TIME_SYSTEM    = UTC
MEAN_ELEMENT_THEORY = SGP/SGP4

EPOCH          = 2026-01-16T07:26:00.233088
MEAN_MOTION    = 15.11876229
ECCENTRICITY   = .0005896
INCLINATION    = 86.6887
RA_OF_ASC_NODE = 138.4335
ARG_OF_PERICENTER = 60.8244
MEAN_ANOMALY   = 299.3584

EPHEMERIS_TYPE = 0
CLASSIFICATION_TYPE = U
NORAD_CAT_ID   = 81969
ELEMENT_SET_NO = 999
REV_AT_EPOCH   = 44539
BSTAR          = .4352E-3
MEAN_MOTION_DOT = .7477E-4
MEAN_MOTION_DDOT = 0

CCSDS_OMM_VERS = 2.0
CREATION_DATE  = 
ORIGINATOR     = 

OBJECT_NAME    = UNKNOWN
OBJECT_ID      = 
CENTER_NAME    = EARTH
REF_FRAME      = TEME
TIME_SYSTEM    = UTC
MEAN_ELEMENT_THEORY = SGP/SGP4

EPOCH          = 2026-01-16T01:08:56.047488
MEAN_MOTION    = 14.04288574
ECCENTRICITY   = .052008
INCLINATION    = 65.7473
RA_OF_ASC_NODE = 34.2317
ARG_OF_PERICENTER = 280.1999
MEAN_ANOMALY   = 74.0837

EPHEMERIS_TYPE = 0
CLASSIFICATION_TYPE = U
NORAD_CAT_ID   = 81995
ELEMENT_SET_NO = 999
REV_AT_EPOCH   = 60904
BSTAR          = .94809E-3
MEAN_MOTION_DOT = .5077E-4
MEAN_MOTION_DDOT = 0

CCSDS_OMM_VERS = 2.0
CREATION_DATE  = 
ORIGINATOR     = 

OBJECT_NAME    = UNKNOWN
OBJECT_ID      = 
CENTER_NAME    = EARTH
REF_FRAME      = TEME
TIME_SYSTEM    = UTC
MEAN_ELEMENT_THEORY = SGP/SGP4

EPOCH          = 2026-01-16T08:39:58.522464
MEAN_MOTION    = 14.32684007
ECCENTRICITY   = .0230466
INCLINATION    = 97.9306
RA_OF_ASC_NODE = 167.1632
ARG_OF_PERICENTER = 339.5676
MEAN_ANOMALY   = 19.6402

EPHEMERIS_TYPE = 0
CLASSIFICATION_TYPE = U
NORAD_CAT_ID   = 82043
ELEMENT_SET_NO = 999
REV_AT_EPOCH   = 57880
BSTAR          = .31673E-3
MEAN_MOTION_DOT = .111E-4
MEAN_MOTION_DDOT = 0

CCSDS_OMM_VERS = 2.0
CREATION_DATE  = 
ORIGINATOR     = 

OBJECT_NAME    = UNKNOWN
OBJECT_ID      = 
CENTER_NAME    = EARTH
REF_FRAME      = TEME
TIME_SYSTEM    = UTC
MEAN_ELEMENT_THEORY = SGP/SGP4

EPOCH          = 2026-01-06T23:40:16.505760
MEAN_MOTION    = 14.36311709
ECCENTRICITY   = .0093487
INCLINATION    = 98.7461
RA_OF_ASC_NODE = 97.8569
ARG_OF_PERICENTER = 185.3657
MEAN_ANOMALY   = 174.6535

EPHEMERIS_TYPE = 0
CLASSIFICATION_TYPE = U
NORAD_CAT_ID   = 82051
ELEMENT_SET_NO = 999
REV_AT_EPOCH   = 57603
BSTAR          = .21791E-2
MEAN_MOTION_DOT = .6656E-4
MEAN_MOTION_DDOT = 0

CCSDS_OMM_VERS = 2.0
CREATION_DATE  = 
ORIGINATOR     = 

OBJECT_NAME    = UNKNOWN
OBJECT_ID      = 
CENTER_NAME    = EARTH
REF_FRAME      = TEME
TIME_SYSTEM    = UTC
MEAN_ELEMENT_THEORY = SGP/SGP4

EPOCH          = 2026-01-16T04:08:03.352992
MEAN_MOTION    = 14.39100593
ECCENTRICITY   = .0207286
INCLINATION    = 97.7492
RA_OF_ASC_NODE = 94.0175
ARG_OF_PERICENTER = 182.3454
MEAN_ANOMALY   = 177.6784

EPHEMERIS_TYPE = 0
CLASSIFICATION_TYPE = U
NORAD_CAT_ID   = 82073
ELEMENT_SET_NO = 999
REV_AT_EPOCH   = 58007
BSTAR          = .54021E-3
MEAN_MOTION_DOT = .2105E-4
MEAN_MOTION_DDOT = 0

CCSDS_OMM_VERS = 2.0
CREATION_DATE  = 
ORIGINATOR     = 

OBJECT_NAME    = UNKNOWN
OBJECT_ID      = 
CENTER_NAME    = EARTH
REF_FRAME      = TEME
TIME_SYSTEM    = UTC
MEAN_ELEMENT_THEORY = SGP/SGP4

EPOCH          = 2026-01-15T15:23:52.105920
MEAN_MOTION    = 14.15594581
ECCENTRICITY   = .0081691
INCLINATION    = 99.0204
RA_OF_ASC_NODE = 88.9226
ARG_OF_PERICENTER = 305.9970
MEAN_ANOMALY   = 53.3648

EPHEMERIS_TYPE = 0
CLASSIFICATION_TYPE = U
NORAD_CAT_ID   = 82139
ELEMENT_SET_NO = 999
REV_AT_EPOCH   = 48491
BSTAR          = .70582E-3
MEAN_MOTION_DOT = .138E-4
MEAN_MOTION_DDOT = 0

