UNKNOWN                 
1 81893U          26014.42396901  .00000827  00000+0  88982-3 0  9990
2 81893 100.0500   4.5334 0020487 183.7705 176.3291 13.76776292608573
UNKNOWN                 
1 81899U          26016.12672235  .00000782  00000+0  19084-2 0  9998
2 81899 102.4126 129.1309 0180490 143.1942 218.1714 13.20300650583521
UNKNOWN                 
1 81921U          26011.22022129  .00001504  00000+0  63836-3 0  9999
2 81921  65.7098 346.2113 0844073 101.7865 267.9012 13.15244741 29664
UNKNOWN                 
1 81946U          26016.19135141  .00000497  00000+0  17863-2 0  9994
2 81946  66.4180  86.3844 0674966 334.6287  50.1261 12.42601212552164
UNKNOWN                 
1 81947U          26013.58129287  .00002390  00000+0  24239-3 0  9999
2 81947  66.0752  79.3228 0371884 122.7684 240.9834 14.53154030635649
UNKNOWN                 
1 81964U          26015.85198659  .00000149  00000+0  16612-3 0  9995
2 81964  66.5834 174.0648 0030165  58.2242 302.1769 13.95819243618806
UNKNOWN                 
1 81969U          26016.30972492  .00007477  00000+0  43520-3 0  9995
2 81969  86.6887 138.4335 0005896  60.8244 299.3584 15.11876229445394
UNKNOWN                 
1 81995U          26016.04787092  .00005077  00000+0  94809-3 0  9995
2 81995  65.7473  34.2317 0520080 280.1999  74.0837 14.04288574609040
UNKNOWN                 
1 82043U          26016.36109401  .00001110  00000+0  31673-3 0  9991
2 82043  97.9306 167.1632 0230466 339.5676  19.6402 14.32684007578804
UNKNOWN                 
1 82051U          26006.98630215  .00006656  00000+0  21791-2 0  9998
2 82051  98.7461  97.8569 0093487 185.3657 174.6535 14.36311709576030
UNKNOWN                 
1 82073U          26016.17226103  .00002105  00000+0  54021-3 0  9999
2 82073  97.7492  94.0175 0207286 182.3454 177.6784 14.39100593580073
UNKNOWN                 
1 82139U          26015.64157530  .00001380  00000+0  70582-3 0  9994
2 82139  99.0204  88.9226 0081691 305.9970  53.3648 14.15594581484910
